{
  "type": "FeatureCollection",
  "features": [
    {
      "type": "Feature",
      "properties": {
        "norad_id": 34070,
        "name": "COSMOS 2251 DEB",
        "group": "cosmos-2251-debris",
        "lat": -13.051101018264205,
        "lon": -46.97586695544826,
        "alt_km": 635.3212737647646,
        "timestamp": "2025-12-06T03:35:02.279663+00:00",
        "meta_object_name": "COSMOS 2251 DEB",
        "meta_object_id": "1993-036KH",
        "meta_epoch": "2025-12-04T20:23:51.478368",
        "meta_mean_motion": 14.76578677,
        "meta_eccentricity": 0.00192898,
        "meta_inclination": 73.9997,
        "meta_ra_of_asc_node": 131.7607,
        "meta_arg_of_pericenter": 246.5409,
        "meta_mean_anomaly": 242.3634,
        "meta_ephemeris_type": 0,
        "meta_classification_type": "U",
        "meta_norad_cat_id": 34070,
        "meta_element_set_no": 999,
        "meta_rev_at_epoch": 88494,
        "meta_bstar": 0.0058656512,
        "meta_mean_motion_dot": 0.00041286,
        "meta_mean_motion_ddot": 0,
        "tle_line1": "1 34070U 93036KH  25338.84990137  .00041286  00000+0  58657-2 0  9990",
        "tle_line2": "2 34070  73.9997 131.7607 0019289 246.5409 242.3634 14.76578677884949"
      },
      "geometry": {
        "type": "Point",
        "coordinates": [
          -46.97586695544826,
          -13.051101018264205
        ]
      }
    },
    {
      "type": "Feature",
      "properties": {
        "norad_id": 34114,
        "name": "COSMOS 2251 DEB",
        "group": "cosmos-2251-debris",
        "lat": 10.492209648949155,
        "lon": -126.71559767085384,
        "alt_km": 720.6261536171141,
        "timestamp": "2025-12-06T03:35:02.279674+00:00",
        "meta_object_name": "COSMOS 2251 DEB",
        "meta_object_id": "1993-036KK",
        "meta_epoch": "2025-12-05T07:19:17.617728",
        "meta_mean_motion": 14.56216124,
        "meta_eccentricity": 0.00473815,
        "meta_inclination": 74.0611,
        "meta_ra_of_asc_node": 57.9165,
        "meta_arg_of_pericenter": 55.6667,
        "meta_mean_anomaly": 8.6237,
        "meta_ephemeris_type": 0,
        "meta_classification_type": "U",
        "meta_norad_cat_id": 34114,
        "meta_element_set_no": 999,
        "meta_rev_at_epoch": 87693,
        "meta_bstar": 0.0033475342,
        "meta_mean_motion_dot": 0.0001503,
        "meta_mean_motion_ddot": 0,
        "tle_line1": "1 34114U 93036KK  25339.30506502  .00015030  00000+0  33475-2 0  9999",
        "tle_line2": "2 34114  74.0611  57.9165 0047381  55.6667   8.6237 14.56216124876936"
      },
      "geometry": {
        "type": "Point",
        "coordinates": [
          -126.71559767085384,
          10.492209648949155
        ]
      }
    },
    {
      "type": "Feature",
      "properties": {
        "norad_id": 34115,
        "name": "COSMOS 2251 DEB",
        "group": "cosmos-2251-debris",
        "lat": 73.55375219904009,
        "lon": -1.3626012551981992,
        "alt_km": 604.7285504535485,
        "timestamp": "2025-12-06T03:35:02.279685+00:00",
        "meta_object_name": "COSMOS 2251 DEB",
        "meta_object_id": "1993-036KL",
        "meta_epoch": "2025-12-05T04:26:26.128032",
        "meta_mean_motion": 14.79304513,
        "meta_eccentricity": 0.00282889,
        "meta_inclination": 74.0078,
        "meta_ra_of_asc_node": 256.834,
        "meta_arg_of_pericenter": 82.6438,
        "meta_mean_anomaly": 277.7951,
        "meta_ephemeris_type": 0,
        "meta_classification_type": "U",
        "meta_norad_cat_id": 34115,
        "meta_element_set_no": 999,
        "meta_rev_at_epoch": 89300,
        "meta_bstar": 0.0021642643,
        "meta_mean_motion_dot": 0.00016221,
        "meta_mean_motion_ddot": 0,
        "tle_line1": "1 34115U 93036KL  25339.18502463  .00016221  00000+0  21643-2 0  9995",
        "tle_line2": "2 34115  74.0078 256.8340 0028288  82.6438 277.7951 14.79304513893004"
      },
      "geometry": {
        "type": "Point",
        "coordinates": [
          -1.3626012551981992,
          73.55375219904009
        ]
      }
    },
    {
      "type": "Feature",
      "properties": {
        "norad_id": 34116,
        "name": "COSMOS 2251 DEB",
        "group": "cosmos-2251-debris",
        "lat": -34.048698884882334,
        "lon": -175.94273523656827,
        "alt_km": 716.758422843136,
        "timestamp": "2025-12-06T03:35:02.279696+00:00",
        "meta_object_name": "COSMOS 2251 DEB",
        "meta_object_id": "1993-036KM",
        "meta_epoch": "2025-12-05T01:52:55.843968",
        "meta_mean_motion": 14.52910835,
        "meta_eccentricity": 0.00122578,
        "meta_inclination": 74.0404,
        "meta_ra_of_asc_node": 197.2263,
        "meta_arg_of_pericenter": 273.4633,
        "meta_mean_anomaly": 211.8076,
        "meta_ephemeris_type": 0,
        "meta_classification_type": "U",
        "meta_norad_cat_id": 34116,
        "meta_element_set_no": 999,
        "meta_rev_at_epoch": 88375,
        "meta_bstar": 0.0015829716,
        "meta_mean_motion_dot": 6.504e-05,
        "meta_mean_motion_ddot": 0,
        "tle_line1": "1 34116U 93036KM  25339.07842412  .00006504  00000+0  15830-2 0  9999",
        "tle_line2": "2 34116  74.0404 197.2263 0012257 273.4633 211.8076 14.52910835883755"
      },
      "geometry": {
        "type": "Point",
        "coordinates": [
          -175.94273523656827,
          -34.048698884882334
        ]
      }
    },
    {
      "type": "Feature",
      "properties": {
        "norad_id": 34117,
        "name": "COSMOS 2251 DEB",
        "group": "cosmos-2251-debris",
        "lat": 71.69205996994575,
        "lon": 116.13305286087525,
        "alt_km": 715.9877291286439,
        "timestamp": "2025-12-06T03:35:02.279707+00:00",
        "meta_object_name": "COSMOS 2251 DEB",
        "meta_object_id": "1993-036KN",
        "meta_epoch": "2025-12-05T03:47:11.318496",
        "meta_mean_motion": 14.39966035,
        "meta_eccentricity": 0.00543907,
        "meta_inclination": 74.04,
        "meta_ra_of_asc_node": 357.8368,
        "meta_arg_of_pericenter": 76.5279,
        "meta_mean_anomaly": 284.1929,
        "meta_ephemeris_type": 0,
        "meta_classification_type": "U",
        "meta_norad_cat_id": 34117,
        "meta_element_set_no": 999,
        "meta_rev_at_epoch": 88014,
        "meta_bstar": 0.0012972543,
        "meta_mean_motion_dot": 4.131e-05,
        "meta_mean_motion_ddot": 0,
        "tle_line1": "1 34117U 93036KN  25339.15776989  .00004131  00000+0  12973-2 0  9993",
        "tle_line2": "2 34117  74.0400 357.8368 0054390  76.5279 284.1929 14.39966035880142"
      },
      "geometry": {
        "type": "Point",
        "coordinates": [
          116.13305286087525,
          71.69205996994575
        ]
      }
    },
    {
      "type": "Feature",
      "properties": {
        "norad_id": 34118,
        "name": "COSMOS 2251 DEB",
        "group": "cosmos-2251-debris",
        "lat": -24.13952687216083,
        "lon": -104.77380134255989,
        "alt_km": 612.5686558598218,
        "timestamp": "2025-12-06T03:35:02.279717+00:00",
        "meta_object_name": "COSMOS 2251 DEB",
        "meta_object_id": "1993-036KP",
        "meta_epoch": "2025-12-05T05:51:26.955072",
        "meta_mean_motion": 14.93472012,
        "meta_eccentricity": 0.00598914,
        "meta_inclination": 73.9535,
        "meta_ra_of_asc_node": 264.467,
        "meta_arg_of_pericenter": 96.6806,
        "meta_mean_anomaly": 53.588,
        "meta_ephemeris_type": 0,
        "meta_classification_type": "U",
        "meta_norad_cat_id": 34118,
        "meta_element_set_no": 999,
        "meta_rev_at_epoch": 89064,
        "meta_bstar": 0.0037449461,
        "meta_mean_motion_dot": 0.00041008,
        "meta_mean_motion_ddot": 0,
        "tle_line1": "1 34118U 93036KP  25339.24406198  .00041008  00000+0  37449-2 0  9995",
        "tle_line2": "2 34118  73.9535 264.4670 0059891  96.6806  53.5880 14.93472012890646"
      },
      "geometry": {
        "type": "Point",
        "coordinates": [
          -104.77380134255989,
          -24.13952687216083
        ]
      }
    },
    {
      "type": "Feature",
      "properties": {
        "norad_id": 34120,
        "name": "COSMOS 2251 DEB",
        "group": "cosmos-2251-debris",
        "lat": 57.181307899309864,
        "lon": 21.20324472033048,
        "alt_km": 828.9727494751678,
        "timestamp": "2025-12-06T03:35:02.279728+00:00",
        "meta_object_name": "COSMOS 2251 DEB",
        "meta_object_id": "1993-036KR",
        "meta_epoch": "2025-12-05T03:42:28.654848",
        "meta_mean_motion": 13.98670509,
        "meta_eccentricity": 0.01816231,
        "meta_inclination": 73.9916,
        "meta_ra_of_asc_node": 229.3586,
        "meta_arg_of_pericenter": 58.7497,
        "meta_mean_anomaly": 91.1403,
        "meta_ephemeris_type": 0,
        "meta_classification_type": "U",
        "meta_norad_cat_id": 34120,
        "meta_element_set_no": 999,
        "meta_rev_at_epoch": 85874,
        "meta_bstar": 0.00065777227,
        "meta_mean_motion_dot": 1.065e-05,
        "meta_mean_motion_ddot": 0,
        "tle_line1": "1 34120U 93036KR  25339.15449832  .00001065  00000+0  65777-3 0  9995",
        "tle_line2": "2 34120  73.9916 229.3586 0181623  58.7497  91.1403 13.98670509858741"
      },
      "geometry": {
        "type": "Point",
        "coordinates": [
          21.20324472033048,
          57.181307899309864
        ]
      }
    }
  ]
}